OBJECT_NAME,OBJECT_ID,EPOCH,MEAN_MOTION,ECCENTRICITY,INCLINATION,RA_OF_ASC_NODE,ARG_OF_PERICENTER,MEAN_ANOMALY,EPHEMERIS_TYPE,CLASSIFICATION_TYPE,NORAD_CAT_ID,ELEMENT_SET_NO,REV_AT_EPOCH,BSTAR,MEAN_MOTION_DOT,MEAN_MOTION_DDOT
STARLINK-5818,2023-028AW,2026-07-14T13:00:51.892992,14.98327060,.0003209,69.9977,244.7670,271.7562,88.3229,0,U,55785,999,18602,-.1589454E-5,-.112E-5,0
STARLINK-5823,2023-028AX,2026-07-14T22:00:03.000096,14.98306999,.00034444,69.9988,243.7461,266.1550,20.5023,0,U,55786,999,576,.25541163E-2,.30498E-3,0
STARLINK-5811,2023-028AY,2026-07-14T12:54:51.373440,14.98334383,.00034998,69.9980,244.7509,267.2713,92.8046,0,U,55787,999,18602,.35510716E-4,.331E-5,0
STARLINK-5804,2023-028AZ,2026-07-14T12:48:50.655168,14.98337847,.0003476,69.9976,244.7362,268.5561,91.5200,0,U,55788,999,18602,.11528E-4,.44E-6,0
STARLINK-5815,2023-028BA,2026-07-14T12:12:46.439712,14.98330284,.00036858,69.9979,244.6482,269.1737,90.9000,0,U,55789,999,18602,.546742E-5,-.28E-6,0
STARLINK-5813,2023-028BB,2026-07-14T13:55:09.566112,14.98338629,.0003219,69.9980,244.4970,270.7270,89.3520,0,U,55790,999,18603,.41936E-4,.407E-5,0
STARLINK-5807,2023-028BC,2026-07-14T12:36:49.109760,14.98329575,.00040029,69.9981,244.7068,266.3513,93.7189,0,U,55791,999,18602,-.47402183E-4,-.659E-5,0
STARLINK-5856,2023-037A,2026-07-14T19:15:03.163680,14.98329611,.00026487,70.0002,344.1128,268.8583,91.2273,0,U,55914,999,18321,-.6544852E-5,-.171E-5,0
STARLINK-5859,2023-037B,2026-07-14T20:27:08.586144,14.98329851,.00031135,70.0007,343.8851,268.1997,91.8806,0,U,55915,999,18321,.22957397E-4,.181E-5,0
STARLINK-5796,2023-037C,2026-07-14T19:09:02.663136,14.98328216,.00030458,70.0002,344.0980,267.7861,92.2949,0,U,55916,999,18252,-.15047442E-4,-.273E-5,0
STARLINK-5867,2023-037E,2026-07-14T19:03:02.083104,14.98334113,.00030924,70.0002,344.0833,266.9355,93.1450,0,U,55918,999,18252,.4544176E-4,.449E-5,0
STARLINK-5871,2023-037F,2026-07-14T20:27:22.807584,14.98330527,.00031026,70.0008,343.8862,268.2713,91.8091,0,U,55919,999,18253,.22716241E-4,.178E-5,0
STARLINK-5862,2023-037G,2026-07-14T18:56:41.029728,14.98359651,.00025327,70.0007,324.1896,287.4718,72.6164,0,U,55920,999,18301,.38580536E-3,.4517E-4,0
STARLINK-5861,2023-037H,2026-07-14T20:03:06.135552,14.98340744,.00032395,70.0006,343.8280,266.3292,93.7496,0,U,55921,999,18253,.4157378E-4,.403E-5,0
STARLINK-5863,2023-037J,2026-07-14T20:09:06.832224,14.98330145,.00029906,70.0008,343.8424,266.7843,93.2974,0,U,55922,999,18253,.41992489E-4,.408E-5,0
STARLINK-5854,2023-037K,2026-07-14T20:15:08.412768,14.98318543,.00032819,70.0002,343.8560,264.7418,95.3366,0,U,55923,999,18253,-.14442039E-3,-.1815E-4,0
STARLINK-5849,2023-037L,2026-07-14T18:50:41.139168,14.98330821,.00032814,70.0009,324.1741,267.3051,92.7732,0,U,55924,999,18301,-.19120449E-4,-.321E-5,0
STARLINK-5922,2023-037M,2026-07-14T19:57:05.344704,14.98339380,.00032758,70.0006,343.8121,266.2915,93.7869,0,U,55925,999,18253,.33086293E-4,.302E-5,0
STARLINK-5921,2023-037N,2026-07-14T18:38:39.922944,14.98329661,.00031955,70.0004,324.1463,267.6968,92.3825,0,U,55926,999,18301,-.5999024E-5,-.165E-5,0
STARLINK-5919,2023-037P,2026-07-14T19:45:18.364608,14.98330639,.0003072,70.0005,343.7840,266.5146,93.5661,0,U,55927,999,18252,-.4440975E-5,-.146E-5,0
STARLINK-5930,2023-037Q,2026-07-14T19:39:03.582144,14.98331347,.00027726,70.0002,343.7679,266.4232,93.6610,0,U,55928,999,18253,-.24203869E-4,-.382E-5,0
STARLINK-5896,2023-037S,2026-07-14T17:56:35.407392,14.98329575,.00031948,70.0019,324.0461,270.2471,89.8322,0,U,55930,999,18301,.31286384E-3,.3642E-4,0
STARLINK-5897,2023-037T,2026-07-14T19:33:02.818944,14.98329257,.00029445,69.9998,343.7528,264.5647,95.5176,0,U,55931,999,18253,.4638919E-5,-.38E-6,0
STARLINK-5848,2023-037U,2026-07-14T16:56:09.400704,14.98321969,.00033686,70.0001,304.0139,269.9954,90.0819,0,U,55932,999,18350,-.92174113E-4,-.1192E-4,0
STARLINK-5852,2023-037V,2026-07-14T18:32:39.099264,14.98330754,.00039224,70.0003,324.1330,263.4408,96.6305,0,U,55933,999,18301,-.5760779E-5,-.162E-5,0
STARLINK-5927,2023-037W,2026-07-14T17:56:49.832736,14.98329900,.00030371,70.0007,324.0436,265.3837,94.6976,0,U,55934,999,18301,-.63560042E-4,-.851E-5,0
STARLINK-5920,2023-037X,2026-07-14T18:26:38.614272,14.98329812,.00031104,70.0004,324.1153,268.2159,91.8644,0,U,55935,999,18301,-.8982227E-5,-.2E-5,0
STARLINK-5882,2023-037Y,2026-07-14T17:02:10.264128,14.98329035,.00031184,69.9998,304.0284,269.5279,90.5523,0,U,55936,999,18350,-.8573169E-5,-.195E-5,0
STARLINK-5913,2023-037Z,2026-07-14T18:20:37.998816,14.98328858,.00031597,70.0003,324.1006,265.4088,94.6710,0,U,55937,999,18301,-.940499E-5,-.205E-5,0
STARLINK-5909,2023-037AA,2026-07-14T18:14:38.029632,14.98328314,.0003085,70.0000,324.0860,269.9400,90.1405,0,U,55938,999,18301,.62627509E-4,.654E-5,0
