STARLINK-5818           
1 55785U 23028AW  26195.54226728 -.00000112  00000+0 -15895-5 0  9992
2 55785  69.9977 244.7670 0003209 271.7562  88.3229 14.98327060186022
STARLINK-5823           
1 55786U 23028AX  26195.91670139  .00030498  00000+0  25541-2 0  9997
2 55786  69.9988 243.7461 0003444 266.1550  20.5023 14.98306999  5767
STARLINK-5811           
1 55787U 23028AY  26195.53809460  .00000331  00000+0  35511-4 0  9990
2 55787  69.9980 244.7509 0003499 267.2713  92.8046 14.98334383186021
STARLINK-5804           
1 55788U 23028AZ  26195.53391962  .00000044  00000+0  11528-4 0  9997
2 55788  69.9976 244.7362 0003476 268.5561  91.5200 14.98337847186020
STARLINK-5815           
1 55789U 23028BA  26195.50887083 -.00000028  00000+0  54674-5 0  9992
2 55789  69.9979 244.6482 0003685 269.1737  90.9000 14.98330284186029
STARLINK-5813           
1 55790U 23028BB  26195.57997183  .00000407  00000+0  41936-4 0  9990
2 55790  69.9980 244.4970 0003219 270.7270  89.3520 14.98338629186037
STARLINK-5807           
1 55791U 23028BC  26195.52556840 -.00000659  00000+0 -47402-4 0  9992
2 55791  69.9981 244.7068 0004002 266.3513  93.7189 14.98329575186021
STARLINK-5856           
1 55914U 23037A   26195.80211995 -.00000171  00000+0 -65449-5 0  9990
2 55914  70.0002 344.1128 0002648 268.8583  91.2273 14.98329611183211
STARLINK-5859           
1 55915U 23037B   26195.85218271  .00000181  00000+0  22957-4 0  9995
2 55915  70.0007 343.8851 0003113 268.1997  91.8806 14.98329851183210
STARLINK-5796           
1 55916U 23037C   26195.79794749 -.00000273  00000+0 -15047-4 0  9994
2 55916  70.0002 344.0980 0003045 267.7861  92.2949 14.98328216182521
STARLINK-5867           
1 55918U 23037E   26195.79377411  .00000449  00000+0  45442-4 0  9994
2 55918  70.0002 344.0833 0003092 266.9355  93.1450 14.98334113182521
STARLINK-5871           
1 55919U 23037F   26195.85234731  .00000178  00000+0  22716-4 0  9997
2 55919  70.0008 343.8862 0003102 268.2713  91.8091 14.98330527182534
STARLINK-5862           
1 55920U 23037G   26195.78936377  .00004517  00000+0  38581-3 0  9993
2 55920  70.0007 324.1896 0002532 287.4718  72.6164 14.98359651183019
STARLINK-5861           
1 55921U 23037H   26195.83548768  .00000403  00000+0  41574-4 0  9990
2 55921  70.0006 343.8280 0003239 266.3292  93.7496 14.98340744182533
STARLINK-5863           
1 55922U 23037J   26195.83966241  .00000408  00000+0  41992-4 0  9990
2 55922  70.0008 343.8424 0002990 266.7843  93.2974 14.98330145182535
STARLINK-5854           
1 55923U 23037K   26195.84384737 -.00001815  00000+0 -14442-3 0  9990
2 55923  70.0002 343.8560 0003281 264.7418  95.3366 14.98318543182537
STARLINK-5849           
1 55924U 23037L   26195.78519837 -.00000321  00000+0 -19120-4 0  9995
2 55924  70.0009 324.1741 0003281 267.3051  92.7732 14.98330821183015
STARLINK-5922           
1 55925U 23037M   26195.83131186  .00000302  00000+0  33086-4 0  9993
2 55925  70.0006 343.8121 0003275 266.2915  93.7869 14.98339380182530
STARLINK-5921           
1 55926U 23037N   26195.77685096 -.00000165  00000+0 -59990-5 0  9993
2 55926  70.0004 324.1463 0003195 267.6968  92.3825 14.98329661183016
STARLINK-5919           
1 55927U 23037P   26195.82312922 -.00000146  00000+0 -44410-5 0  9995
2 55927  70.0005 343.7840 0003072 266.5146  93.5661 14.98330639182527
STARLINK-5930           
1 55928U 23037Q   26195.81879146 -.00000382  00000+0 -24204-4 0  9991
2 55928  70.0002 343.7679 0002772 266.4232  93.6610 14.98331347182539
STARLINK-5896           
1 55930U 23037S   26195.74763203  .00003642  00000+0  31286-3 0  9999
2 55930  70.0019 324.0461 0003194 270.2471  89.8322 14.98329575183019
STARLINK-5897           
1 55931U 23037T   26195.81461596 -.00000038  00000+0  46389-5 0  9997
2 55931  69.9998 343.7528 0002944 264.5647  95.5176 14.98329257182532
STARLINK-5848           
1 55932U 23037U   26195.70566436 -.00001192  00000+0 -92174-4 0  9990
2 55932  70.0001 304.0139 0003368 269.9954  90.0819 14.98321969183504
STARLINK-5852           
1 55933U 23037V   26195.77267476 -.00000162  00000+0 -57608-5 0  9990
2 55933  70.0003 324.1330 0003922 263.4408  96.6305 14.98330754183012
STARLINK-5927           
1 55934U 23037W   26195.74779899 -.00000851  00000+0 -63560-4 0  9993
2 55934  70.0007 324.0436 0003037 265.3837  94.6976 14.98329900183010
STARLINK-5920           
1 55935U 23037X   26195.76850248 -.00000200  00000+0 -89822-5 0  9992
2 55935  70.0004 324.1153 0003110 268.2159  91.8644 14.98329812183019
STARLINK-5882           
1 55936U 23037Y   26195.70984102 -.00000195  00000+0 -85732-5 0  9993
2 55936  69.9998 304.0284 0003118 269.5279  90.5523 14.98329035183509
STARLINK-5913           
1 55937U 23037Z   26195.76432869 -.00000205  00000+0 -94050-5 0  9993
2 55937  70.0003 324.1006 0003159 265.4088  94.6710 14.98328858183014
STARLINK-5909           
1 55938U 23037AA  26195.76016238  .00000654  00000+0  62628-4 0  9993
2 55938  70.0000 324.0860 0003085 269.9400  90.1405 14.98328314183013
